{
  "type": "FeatureCollection",
  "features": [
    {
      "type": "Feature",
      "properties": {
        "norad_id": 44873,
        "name": "CSG-1",
        "group": "resource",
        "lat": -43.97537081570323,
        "lon": 167.93865783636303,
        "alt_km": 629.9125969385259,
        "timestamp": "2025-12-04T19:33:59.289093+00:00",
        "meta_object_name": "CSG-1",
        "meta_object_id": "2019-092A",
        "meta_epoch": "2025-12-04T08:25:30.319968",
        "meta_mean_motion": 14.82146267,
        "meta_eccentricity": 0.00014647,
        "meta_inclination": 97.8806,
        "meta_ra_of_asc_node": 159.8015,
        "meta_arg_of_pericenter": 86.5499,
        "meta_mean_anomaly": 273.5882,
        "meta_ephemeris_type": 0,
        "meta_classification_type": "U",
        "meta_norad_cat_id": 44873,
        "meta_element_set_no": 999,
        "meta_rev_at_epoch": 32261,
        "meta_bstar": 0.00016441682,
        "meta_mean_motion_dot": 1.257e-05,
        "meta_mean_motion_ddot": 0,
        "tle_line1": "1 44873U 19092A   25338.35104537  .00001257  00000+0  16442-3 0  9990",
        "tle_line2": "2 44873  97.8806 159.8015 0001464  86.5499 273.5882 14.82146267322611"
      },
      "geometry": {
        "type": "Point",
        "coordinates": [
          167.93865783636303,
          -43.97537081570323
        ]
      }
    },
    {
      "type": "Feature",
      "properties": {
        "norad_id": 46277,
        "name": "NEMO-HD",
        "group": "resource",
        "lat": -78.6814748553274,
        "lon": 178.69705069285905,
        "alt_km": 454.7430026832526,
        "timestamp": "2025-12-04T19:33:59.289101+00:00",
        "meta_object_name": "NEMO-HD",
        "meta_object_id": "2020-061F",
        "meta_epoch": "2025-12-04T07:31:11.196192",
        "meta_mean_motion": 15.40064103,
        "meta_eccentricity": 0.00023231,
        "meta_inclination": 97.2229,
        "meta_ra_of_asc_node": 37.5202,
        "meta_arg_of_pericenter": 66.7237,
        "meta_mean_anomaly": 293.4254,
        "meta_ephemeris_type": 0,
        "meta_classification_type": "U",
        "meta_norad_cat_id": 46277,
        "meta_element_set_no": 999,
        "meta_rev_at_epoch": 29194,
        "meta_bstar": 0.00054319833,
        "meta_mean_motion_dot": 0.00021672,
        "meta_mean_motion_ddot": 0,
        "tle_line1": "1 46277U 20061F   25338.31332403  .00021672  00000+0  54320-3 0  9999",
        "tle_line2": "2 46277  97.2229  37.5202 0002323  66.7237 293.4254 15.40064103291947"
      },
      "geometry": {
        "type": "Point",
        "coordinates": [
          178.69705069285905,
          -78.6814748553274
        ]
      }
    },
    {
      "type": "Feature",
      "properties": {
        "norad_id": 46984,
        "name": "SENTINEL-6A",
        "group": "resource",
        "lat": -64.06228969995985,
        "lon": 112.67420393149987,
        "alt_km": 1338.2156029060625,
        "timestamp": "2025-12-04T19:33:59.289110+00:00",
        "meta_object_name": "SENTINEL-6A",
        "meta_object_id": "2020-086A",
        "meta_epoch": "2025-12-03T23:22:11.269056",
        "meta_mean_motion": 12.80930164,
        "meta_eccentricity": 0.00077367,
        "meta_inclination": 66.039,
        "meta_ra_of_asc_node": 180.5154,
        "meta_arg_of_pericenter": 269.1652,
        "meta_mean_anomaly": 90.8477,
        "meta_ephemeris_type": 0,
        "meta_classification_type": "U",
        "meta_norad_cat_id": 46984,
        "meta_element_set_no": 999,
        "meta_rev_at_epoch": 23532,
        "meta_bstar": 0.00017982436,
        "meta_mean_motion_dot": -2e-07,
        "meta_mean_motion_ddot": 0,
        "tle_line1": "1 46984U 20086A   25337.97374154 -.00000020  00000+0  17982-3 0  9999",
        "tle_line2": "2 46984  66.0390 180.5154 0007736 269.1652  90.8477 12.80930164235329"
      },
      "geometry": {
        "type": "Point",
        "coordinates": [
          112.67420393149987,
          -64.06228969995985
        ]
      }
    },
    {
      "type": "Feature",
      "properties": {
        "norad_id": 48079,
        "name": "GAOFEN-12 02",
        "group": "resource",
        "lat": -75.88020298096009,
        "lon": 118.94211065709675,
        "alt_km": 636.3871297449668,
        "timestamp": "2025-12-04T19:33:59.289119+00:00",
        "meta_object_name": "GAOFEN-12 02",
        "meta_object_id": "2021-026A",
        "meta_epoch": "2025-12-04T07:03:01.461888",
        "meta_mean_motion": 14.80659683,
        "meta_eccentricity": 0.00032946,
        "meta_inclination": 97.9849,
        "meta_ra_of_asc_node": 332.3412,
        "meta_arg_of_pericenter": 117.8751,
        "meta_mean_anomaly": 242.2795,
        "meta_ephemeris_type": 0,
        "meta_classification_type": "U",
        "meta_norad_cat_id": 48079,
        "meta_element_set_no": 999,
        "meta_rev_at_epoch": 25292,
        "meta_bstar": 0.0001427148,
        "meta_mean_motion_dot": 1.044e-05,
        "meta_mean_motion_ddot": 0,
        "tle_line1": "1 48079U 21026A   25338.29376692  .00001044  00000+0  14271-3 0  9990",
        "tle_line2": "2 48079  97.9849 332.3412 0003294 117.8751 242.2795 14.80659683252923"
      },
      "geometry": {
        "type": "Point",
        "coordinates": [
          118.94211065709675,
          -75.88020298096009
        ]
      }
    },
    {
      "type": "Feature",
      "properties": {
        "norad_id": 48268,
        "name": "PLEIADES NEO 3",
        "group": "resource",
        "lat": -62.33142747315029,
        "lon": 66.71617286284041,
        "alt_km": 632.0159093988395,
        "timestamp": "2025-12-04T19:33:59.289128+00:00",
        "meta_object_name": "PLEIADES NEO 3",
        "meta_object_id": "2021-034A",
        "meta_epoch": "2025-12-04T08:30:24.331392",
        "meta_mean_motion": 14.81673589,
        "meta_eccentricity": 0.00012454,
        "meta_inclination": 97.8946,
        "meta_ra_of_asc_node": 50.9159,
        "meta_arg_of_pericenter": 91.5378,
        "meta_mean_anomaly": 268.5978,
        "meta_ephemeris_type": 0,
        "meta_classification_type": "U",
        "meta_norad_cat_id": 48268,
        "meta_element_set_no": 999,
        "meta_rev_at_epoch": 24880,
        "meta_bstar": -1.924812e-06,
        "meta_mean_motion_dot": -6.7e-07,
        "meta_mean_motion_ddot": 0,
        "tle_line1": "1 48268U 21034A   25338.35444828 -.00000067  00000+0 -19248-5 0  9990",
        "tle_line2": "2 48268  97.8946  50.9159 0001245  91.5378 268.5978 14.81673589248806"
      },
      "geometry": {
        "type": "Point",
        "coordinates": [
          66.71617286284041,
          -62.33142747315029
        ]
      }
    },
    {
      "type": "Feature",
      "properties": {
        "norad_id": 49070,
        "name": "PLEIADES NEO 4",
        "group": "resource",
        "lat": 62.15710483845802,
        "lon": -113.40273739671858,
        "alt_km": 617.1612222095719,
        "timestamp": "2025-12-04T19:33:59.289137+00:00",
        "meta_object_name": "PLEIADES NEO 4",
        "meta_object_id": "2021-073E",
        "meta_epoch": "2025-12-04T07:41:45.906144",
        "meta_mean_motion": 14.81672732,
        "meta_eccentricity": 0.0001281,
        "meta_inclination": 97.895,
        "meta_ra_of_asc_node": 50.8785,
        "meta_arg_of_pericenter": 98.0398,
        "meta_mean_anomaly": 262.096,
        "meta_ephemeris_type": 0,
        "meta_classification_type": "U",
        "meta_norad_cat_id": 49070,
        "meta_element_set_no": 999,
        "meta_rev_at_epoch": 23251,
        "meta_bstar": 3.2661e-06,
        "meta_mean_motion_dot": -2.6e-07,
        "meta_mean_motion_ddot": 0,
        "tle_line1": "1 49070U 21073E   25338.32067021 -.00000026  00000+0  32661-5 0  9996",
        "tle_line2": "2 49070  97.8950  50.8785 0001281  98.0398 262.0960 14.81672732232511"
      },
      "geometry": {
        "type": "Point",
        "coordinates": [
          -113.40273739671858,
          62.15710483845802
        ]
      }
    },
    {
      "type": "Feature",
      "properties": {
        "norad_id": 49260,
        "name": "LANDSAT 9",
        "group": "resource",
        "lat": 65.81151820680488,
        "lon": -114.20937766932782,
        "alt_km": 695.3710940490055,
        "timestamp": "2025-12-04T19:33:59.289146+00:00",
        "meta_object_name": "LANDSAT 9",
        "meta_object_id": "2021-088A",
        "meta_epoch": "2025-12-04T04:13:05.506752",
        "meta_mean_motion": 14.57116853,
        "meta_eccentricity": 0.00010611,
        "meta_inclination": 98.2104,
        "meta_ra_of_asc_node": 46.4104,
        "meta_arg_of_pericenter": 92.6691,
        "meta_mean_anomaly": 267.4629,
        "meta_ephemeris_type": 0,
        "meta_classification_type": "U",
        "meta_norad_cat_id": 49260,
        "meta_element_set_no": 999,
        "meta_rev_at_epoch": 22260,
        "meta_bstar": 0.00021180906,
        "meta_mean_motion_dot": 9.09e-06,
        "meta_mean_motion_ddot": 0,
        "tle_line1": "1 49260U 21088A   25338.17575818  .00000909  00000+0  21181-3 0  9996",
        "tle_line2": "2 49260  98.2104  46.4104 0001061  92.6691 267.4629 14.57116853222606"
      },
      "geometry": {
        "type": "Point",
        "coordinates": [
          -114.20937766932782,
          65.81151820680488
        ]
      }
    }
  ]
}